{
  "type": "FeatureCollection",
  "features": [
    {
      "type": "Feature",
      "properties": {
        "norad_id": 38827,
        "name": "FENGYUN 1C DEB",
        "group": "fengyun-1c-debris",
        "lat": 73.40742785567939,
        "lon": -11.24253234450155,
        "alt_km": 907.7865388739829,
        "timestamp": "2025-12-21T18:54:58.786433+00:00",
        "meta_object_name": "FENGYUN 1C DEB",
        "meta_object_id": "1999-025EVT",
        "meta_epoch": "2025-12-15T08:22:40.312416",
        "meta_mean_motion": 14.32871633,
        "meta_eccentricity": 0.02162225,
        "meta_inclination": 98.3869,
        "meta_ra_of_asc_node": 12.1956,
        "meta_arg_of_pericenter": 305.0884,
        "meta_mean_anomaly": 53.0194,
        "meta_ephemeris_type": 0,
        "meta_classification_type": "U",
        "meta_norad_cat_id": 38827,
        "meta_element_set_no": 999,
        "meta_rev_at_epoch": 61097,
        "meta_bstar": 0.00067109262,
        "meta_mean_motion_dot": 2.325e-05,
        "meta_mean_motion_ddot": 0,
        "tle_line1": "1 38827U 99025EVT 25349.34907769  .00002325  00000+0  67109-3 0  9998",
        "tle_line2": "2 38827  98.3869  12.1956 0216222 305.0884  53.0194 14.32871633610973"
      },
      "geometry": {
        "type": "Point",
        "coordinates": [
          -11.24253234450155,
          73.40742785567939
        ]
      }
    },
    {
      "type": "Feature",
      "properties": {
        "norad_id": 38829,
        "name": "FENGYUN 1C DEB",
        "group": "fengyun-1c-debris",
        "lat": -34.64624436075828,
        "lon": 17.608443739526287,
        "alt_km": 845.2791779193531,
        "timestamp": "2025-12-21T18:54:58.786443+00:00",
        "meta_object_name": "FENGYUN 1C DEB",
        "meta_object_id": "1999-025EVV",
        "meta_epoch": "2025-12-12T18:40:24.452256",
        "meta_mean_motion": 14.09216687,
        "meta_eccentricity": 0.0041168,
        "meta_inclination": 98.7498,
        "meta_ra_of_asc_node": 2.7487,
        "meta_arg_of_pericenter": 30.5355,
        "meta_mean_anomaly": 329.82,
        "meta_ephemeris_type": 0,
        "meta_classification_type": "U",
        "meta_norad_cat_id": 38829,
        "meta_element_set_no": 999,
        "meta_rev_at_epoch": 64133,
        "meta_bstar": 0.00086306808,
        "meta_mean_motion_dot": 1.47e-05,
        "meta_mean_motion_ddot": 0,
        "tle_line1": "1 38829U 99025EVV 25346.77806079  .00001470  00000+0  86307-3 0  9997",
        "tle_line2": "2 38829  98.7498   2.7487 0041168  30.5355 329.8200 14.09216687641331"
      },
      "geometry": {
        "type": "Point",
        "coordinates": [
          17.608443739526287,
          -34.64624436075828
        ]
      }
    },
    {
      "type": "Feature",
      "properties": {
        "norad_id": 38832,
        "name": "FENGYUN 1C DEB",
        "group": "fengyun-1c-debris",
        "lat": -67.11866016061556,
        "lon": -162.41613789891582,
        "alt_km": 923.1167016971449,
        "timestamp": "2025-12-21T18:54:58.786453+00:00",
        "meta_object_name": "FENGYUN 1C DEB",
        "meta_object_id": "1999-025EVY",
        "meta_epoch": "2025-12-21T09:11:02.447808",
        "meta_mean_motion": 14.04523225,
        "meta_eccentricity": 0.00837558,
        "meta_inclination": 99.2657,
        "meta_ra_of_asc_node": 39.926,
        "meta_arg_of_pericenter": 18.8246,
        "meta_mean_anomaly": 341.5986,
        "meta_ephemeris_type": 0,
        "meta_classification_type": "U",
        "meta_norad_cat_id": 38832,
        "meta_element_set_no": 999,
        "meta_rev_at_epoch": 63879,
        "meta_bstar": 0.00076199681,
        "meta_mean_motion_dot": 1.208e-05,
        "meta_mean_motion_ddot": 0,
        "tle_line1": "1 38832U 99025EVY 25355.38266722  .00001208  00000+0  76200-3 0  9993",
        "tle_line2": "2 38832  99.2657  39.9260 0083755  18.8246 341.5986 14.04523225638797"
      },
      "geometry": {
        "type": "Point",
        "coordinates": [
          -162.41613789891582,
          -67.11866016061556
        ]
      }
    },
    {
      "type": "Feature",
      "properties": {
        "norad_id": 39537,
        "name": "FENGYUN 1C DEB",
        "group": "fengyun-1c-debris",
        "lat": 26.536858984281025,
        "lon": -34.073210299498946,
        "alt_km": 1072.8256538340156,
        "timestamp": "2025-12-21T18:54:58.786462+00:00",
        "meta_object_name": "FENGYUN 1C DEB",
        "meta_object_id": "1999-025EWE",
        "meta_epoch": "2025-12-19T15:51:43.070688",
        "meta_mean_motion": 13.84193589,
        "meta_eccentricity": 0.0177797,
        "meta_inclination": 99.1526,
        "meta_ra_of_asc_node": 139.2359,
        "meta_arg_of_pericenter": 322.4144,
        "meta_mean_anomaly": 36.4691,
        "meta_ephemeris_type": 0,
        "meta_classification_type": "U",
        "meta_norad_cat_id": 39537,
        "meta_element_set_no": 999,
        "meta_rev_at_epoch": 59352,
        "meta_bstar": 0.0010435,
        "meta_mean_motion_dot": 1.271e-05,
        "meta_mean_motion_ddot": 0,
        "tle_line1": "1 39537U 99025EWE 25353.66091517  .00001271  00000+0  10435-2 0  9990",
        "tle_line2": "2 39537  99.1526 139.2359 0177797 322.4144  36.4691 13.84193589593525"
      },
      "geometry": {
        "type": "Point",
        "coordinates": [
          -34.073210299498946,
          26.536858984281025
        ]
      }
    },
    {
      "type": "Feature",
      "properties": {
        "norad_id": 39541,
        "name": "FENGYUN 1C DEB",
        "group": "fengyun-1c-debris",
        "lat": -26.97555999320477,
        "lon": 42.19127220751805,
        "alt_km": 815.5640838241334,
        "timestamp": "2025-12-21T18:54:58.786474+00:00",
        "meta_object_name": "FENGYUN 1C DEB",
        "meta_object_id": "1999-025EWJ",
        "meta_epoch": "2025-12-14T09:31:50.250432",
        "meta_mean_motion": 14.20397112,
        "meta_eccentricity": 0.00718166,
        "meta_inclination": 98.681,
        "meta_ra_of_asc_node": 30.4764,
        "meta_arg_of_pericenter": 68.7411,
        "meta_mean_anomaly": 292.1416,
        "meta_ephemeris_type": 0,
        "meta_classification_type": "U",
        "meta_norad_cat_id": 39541,
        "meta_element_set_no": 999,
        "meta_rev_at_epoch": 59026,
        "meta_bstar": 0.00071004371,
        "meta_mean_motion_dot": 1.519e-05,
        "meta_mean_motion_ddot": 0,
        "tle_line1": "1 39541U 99025EWJ 25348.39710938  .00001519  00000+0  71004-3 0  9999",
        "tle_line2": "2 39541  98.6810  30.4764 0071816  68.7411 292.1416 14.20397112590267"
      },
      "geometry": {
        "type": "Point",
        "coordinates": [
          42.19127220751805,
          -26.97555999320477
        ]
      }
    },
    {
      "type": "Feature",
      "properties": {
        "norad_id": 39543,
        "name": "FENGYUN 1C DEB",
        "group": "fengyun-1c-debris",
        "lat": -48.04607029653928,
        "lon": 35.31216288764592,
        "alt_km": 1249.1028667793053,
        "timestamp": "2025-12-21T18:54:58.786484+00:00",
        "meta_object_name": "FENGYUN 1C DEB",
        "meta_object_id": "1999-025EWL",
        "meta_epoch": "2025-12-18T08:47:52.753056",
        "meta_mean_motion": 13.70202499,
        "meta_eccentricity": 0.03390808,
        "meta_inclination": 99.0409,
        "meta_ra_of_asc_node": 21.8883,
        "meta_arg_of_pericenter": 127.4128,
        "meta_mean_anomaly": 235.8396,
        "meta_ephemeris_type": 0,
        "meta_classification_type": "U",
        "meta_norad_cat_id": 39543,
        "meta_element_set_no": 999,
        "meta_rev_at_epoch": 49262,
        "meta_bstar": 0.00072405565,
        "meta_mean_motion_dot": 9.19e-06,
        "meta_mean_motion_ddot": 0,
        "tle_line1": "1 39543U 99025EWL 25352.36658279  .00000919  00000+0  72406-3 0  9992",
        "tle_line2": "2 39543  99.0409  21.8883 0339080 127.4128 235.8396 13.70202499492621"
      },
      "geometry": {
        "type": "Point",
        "coordinates": [
          35.31216288764592,
          -48.04607029653928
        ]
      }
    },
    {
      "type": "Feature",
      "properties": {
        "norad_id": 39544,
        "name": "FENGYUN 1C DEB",
        "group": "fengyun-1c-debris",
        "lat": 71.27716765395945,
        "lon": -152.3900925171063,
        "alt_km": 867.1388313059124,
        "timestamp": "2025-12-21T18:54:58.786494+00:00",
        "meta_object_name": "FENGYUN 1C DEB",
        "meta_object_id": "1999-025EWM",
        "meta_epoch": "2025-12-18T10:16:20.672256",
        "meta_mean_motion": 14.05533723,
        "meta_eccentricity": 0.00544071,
        "meta_inclination": 98.7417,
        "meta_ra_of_asc_node": 231.3683,
        "meta_arg_of_pericenter": 353.4562,
        "meta_mean_anomaly": 6.589,
        "meta_ephemeris_type": 0,
        "meta_classification_type": "U",
        "meta_norad_cat_id": 39544,
        "meta_element_set_no": 999,
        "meta_rev_at_epoch": 56935,
        "meta_bstar": 0.00032895311,
        "meta_mean_motion_dot": 4.99e-06,
        "meta_mean_motion_ddot": 0,
        "tle_line1": "1 39544U 99025EWM 25352.42801704  .00000499  00000+0  32895-3 0  9994",
        "tle_line2": "2 39544  98.7417 231.3683 0054407 353.4562   6.5890 14.05533723569356"
      },
      "geometry": {
        "type": "Point",
        "coordinates": [
          -152.3900925171063,
          71.27716765395945
        ]
      }
    }
  ]
}